{
    "links": {
        "self": "http://www.neowsapp.com/rest/v1/neo/3837590?api_key=iIulBulltgU6a56xZRHN4H3l9WmuAYTsLGpBGhQ2"
    },
    "id": "3837590",
    "neo_reference_id": "3837590",
    "name": "(2019 AS2)",
    "designation": "2019 AS2",
    "nasa_jpl_url": "http://ssd.jpl.nasa.gov/sbdb.cgi?sstr=3837590",
    "absolute_magnitude_h": 24.3,
    "estimated_diameter": {
        "kilometers": {
            "estimated_diameter_min": 0.0366906138,
            "estimated_diameter_max": 0.0820427065
        },
        "meters": {
            "estimated_diameter_min": 36.6906137531,
            "estimated_diameter_max": 82.0427064882
        },
        "miles": {
            "estimated_diameter_min": 0.0227984834,
            "estimated_diameter_max": 0.0509789586
        },
        "feet": {
            "estimated_diameter_min": 120.3760332259,
            "estimated_diameter_max": 269.1689931548
        }
    },
    "is_potentially_hazardous_asteroid": false,
    "close_approach_data": [
        {
            "close_approach_date": "2018-12-10",
            "close_approach_date_full": "2018-Dec-10 18:08",
            "epoch_date_close_approach": 1544465280000,
            "relative_velocity": {
                "kilometers_per_second": "8.5724154248",
                "kilometers_per_hour": "30860.6955292452",
                "miles_per_hour": "19175.6360637135"
            },
            "miss_distance": {
                "astronomical": "0.0788466209",
                "lunar": "30.6713355301",
                "kilometers": "11795286.543337483",
                "miles": "7329251.1961359454"
            },
            "orbiting_body": "Earth"
        }
    ],
    "orbital_data": {
        "orbit_id": "3",
        "orbit_determination_date": "2019-07-27 14:01:34",
        "first_observation_date": "2019-01-03",
        "last_observation_date": "2019-01-11",
        "data_arc_in_days": 8,
        "observations_used": 20,
        "orbit_uncertainty": "8",
        "minimum_orbit_intersection": ".0124562",
        "jupiter_tisserand_invariant": "4.297",
        "epoch_osculation": "2458487.5",
        "eccentricity": ".3993985478873984",
        "semi_major_axis": "1.582063728781102",
        "inclination": "4.210719136258377",
        "ascending_node_longitude": "197.7366594872064",
        "orbital_period": "726.8325823305893",
        "perihelion_distance": ".9501897728406067",
        "perihelion_argument": "204.2692735350596",
        "aphelion_distance": "2.213937684721597",
        "perihelion_time": "2458435.577578678978",
        "mean_anomaly": "25.71716256256947",
        "mean_motion": ".4952997550627955",
        "equinox": "J2000",
        "orbit_class": {
            "orbit_class_type": "APO",
            "orbit_class_description": "Near-Earth asteroid orbits which cross the Earth’s orbit similar to that of 1862 Apollo",
            "orbit_class_range": "a (semi-major axis) > 1.0 AU; q (perihelion) < 1.017 AU"
        }
    },
    "is_sentry_object": false
}